PROBA-1                 
1 26958U 01049B   22293.46544805  .00001278  00000+0  11195-3 0  9995
2 26958  97.8386 253.4316 0069494 287.7334  71.6311 14.96757185143160
BIRD 2                  
1 26959U 01049C   22293.31844489  .00017355  00000+0  33546-3 0  9998
2 26959  97.7631  33.8127 0005339 284.4170  75.6486 15.47835440166231
CUTE-1 (CO-55)          
1 27844U 03031E   22292.99762085  .00000301  00000+0  15431-3 0  9995
2 27844  98.6813 298.8201 0010961 100.4075 259.8338 14.22518711  1614
CUBESAT XI-IV (CO-57)   
1 27848U 03031J   22292.50718631  .00000261  00000+0  13738-3 0  9997
2 27848  98.6856 298.8290 0010755 114.7865 245.4433 14.22066252  1344
GENESIS 1               
1 29252U 06029A   22292.71951665  .00006324  00000+0  27617-3 0  9994
2 29252  64.5237  22.7401 0052758 244.0449 115.5235 15.21792863897874
FALCONSAT-3             
1 30776U 07006E   22293.07688134  .00083120  00000+0  78509-3 0  9996
2 30776  35.4270 158.1079 0004515 298.6502  61.3779 15.65775956869039
GENESIS 2               
1 31789U 07028A   22292.48823883  .00005430  00000+0  24535-3 0  9999
2 31789  64.4962  66.9959 0057485 295.3497  64.1680 15.20603761844757
APRIZESAT 4             
1 35684U 09041D   22293.33488853  .00000643  00000+0  91718-4 0  9992
2 35684  98.3081 311.2512 0045690 312.2598  47.4742 14.79788804713584
APRIZESAT 3             
1 35686U 09041F   22293.50749070  .00001330  00000+0  14393-3 0  9991
2 35686  98.1039  22.9492 0072703 136.9338 223.7599 14.88163621717259
PROBA-2                 
1 36037U 09059B   22292.56692652  .00000245  00000+0  69537-4 0  9994
2 36037  98.2240 116.8439 0014629  86.6298 273.6572 14.53311659687280
APRIZESAT 5             
1 37792U 11044E   22293.25475232  .00000731  00000+0  11204-3 0  9997
2 37792  98.3043 172.2342 0056966 327.6828  32.0895 14.75902350601545
APRIZESAT 6             
1 37793U 11044F   22293.12233390  .00000529  00000+0  89841-4 0  9999
2 37793  98.3844 149.3377 0047077  21.9124  95.0838 14.72901392600361
TET-1                   
1 38710U 12039D   22293.17608932  .00229534  22063-4  65740-3 0  9995
2 38710  97.4974  24.5600 0002312 259.2428 100.8586 15.93192023577088
PROBA-V                 
1 39159U 13021A   22293.09918154  .00000044  00000+0  37682-4 0  9996
2 39159  98.3466 322.6474 0005405  87.9491 272.2307 14.23054324491055
STPSAT-3                
1 39380U 13064A   22293.55030955  .00056538  00000+0  89882-3 0  9991
2 39380  40.4997   1.3787 0007751 130.7789 229.3741 15.52373796500336
APRIZESAT 7             
1 39416U 13066A   22293.18073693  .00001215  00000+0  14779-3 0  9993
2 39416  97.5878 267.1751 0039341 308.6653  51.1044 14.84673033482579
APRIZESAT 8             
1 39425U 13066K   22292.91294475  .00001144  00000+0  14823-3 0  9997
2 39425  97.6435 258.5665 0051208 354.8011   5.2664 14.81798277481666
BUGSAT-1 (TITA)         
1 40014U 14033E   22293.26848306  .00002747  00000+0  24082-3 0  9993
2 40014  98.1467 296.8382 0030438 346.8960  13.1466 14.97227868454815
SAUDISAT 4              
1 40016U 14033G   22292.86713375  .00000524  00000+0  82203-4 0  9998
2 40016  97.6380 120.8740 0049450  97.5171 263.1661 14.75670854448749
APRIZESAT 9             
1 40018U 14033J   22293.01042214  .00000724  00000+0  12294-3 0  9999
2 40018  97.7274  97.0045 0071082 172.5505 187.6776 14.70384631447081
APRIZESAT 10            
1 40019U 14033K   22293.07932432  .00000695  00000+0  12519-3 0  9993
2 40019  97.7846  86.9954 0082944 217.9797 141.5542 14.67411508446257
TDS 1                   
1 40076U 14037H   22293.16025790  .00002509  00000+0  29277-3 0  9995
2 40076  98.3706 172.6642 0007732  36.7478 323.4265 14.86149884448301
TIANTUO 2               
1 40144U 14053B   22293.50808167  .00008236  00000+0  21254-3 0  9994
2 40144  97.1850  11.0071 0012094 106.2120 311.0091 15.39333314454321
TECHNOSAT               
1 42829U 17042E   22293.49727214  .00001300  00000+0  13267-3 0  9998
2 42829  97.4060 140.2737 0012811 314.2083  45.8083 14.92175091286734
FLYING LAPTOP           
1 42831U 17042G   22293.34872309  .00001880  00000+0  19018-3 0  9994
2 42831  97.4090 140.4715 0012478 314.4732  45.5421 14.92032664286719
HAWK-A                  
1 43765U 18099H   22293.18213847  .00001925  00000+0  16985-3 0  9992
2 43765  97.6056 357.9805 0014164 208.1257 151.9202 14.97489085211805
HAWK-B                  
1 43794U 18099AN  22293.18251905  .00001974  00000+0  17399-3 0  9995
2 43794  97.6056 357.9807 0014193 208.4151 151.6299 14.97488999211791
HAWK-C                  
1 43799U 18099AT  22293.18230446  .00001996  00000+0  17593-3 0  9997
2 43799  97.6054 357.8871 0014117 208.0335 152.0128 14.97491633211795
SALSAT                  
1 46495U 20068K   22292.58085169  .00003179  00000+0  22737-3 0  9996
2 46495  97.7399 234.0138 0015335 211.6795 148.3509 15.05103418112858
